{
  "norad_id": 56170,
  "name": "BB 2",
  "history": [
    {
      "epoch": "2026-03-28T22:36:08.769024Z",
      "apogee_km": 950.2194626297805,
      "perigee_km": 934.073406269752,
      "latitude_deg": 3.106774248039454e-05,
      "longitude_deg": -7.953917705591254,
      "height_km": 952.0606356071959,
      "semi_major_axis_km": 7320.283434449766,
      "eccentricity": 0.00110283,
      "inclination_deg": 81.0037,
      "raan_deg": 157.4376,
      "arg_perigee_deg": 151.0477,
      "mean_anomaly_deg": 209.1294,
      "mean_motion_rev_day": 13.86152194
    },
    {
      "epoch": "2026-03-29T03:47:58.154208Z",
      "apogee_km": 950.2234237178682,
      "perigee_km": 934.069022700889,
      "latitude_deg": -4.4654515303140595e-05,
      "longitude_deg": -86.33113649212991,
      "height_km": 952.0265261701287,
      "semi_major_axis_km": 7320.283223209378,
      "eccentricity": 0.0011034,
      "inclination_deg": 81.0037,
      "raan_deg": 157.2296,
      "arg_perigee_deg": 150.5051,
      "mean_anomaly_deg": 209.673,
      "mean_motion_rev_day": 13.86152254
    },
    {
      "epoch": "2026-03-30T00:35:15.673344Z",
      "apogee_km": 950.2411520924443,
      "perigee_km": 934.0492734603595,
      "latitude_deg": -3.658572396210257e-05,
      "longitude_deg": -39.83987219327795,
      "height_km": 951.8842876525082,
      "semi_major_axis_km": 7320.282212776401,
      "eccentricity": 0.00110596,
      "inclination_deg": 81.0035,
      "raan_deg": 156.3976,
      "arg_perigee_deg": 148.3262,
      "mean_anomaly_deg": 211.8562,
      "mean_motion_rev_day": 13.86152541
    },
    {
      "epoch": "2026-03-30T14:26:40.045632Z",
      "apogee_km": 948.6209871473329,
      "perigee_km": 933.0430007818195,
      "latitude_deg": 1.8215416882630546e-05,
      "longitude_deg": 111.18250857898246,
      "height_km": 950.099626139737,
      "semi_major_axis_km": 7318.968993964576,
      "eccentricity": 0.00106422,
      "inclination_deg": 81.0038,
      "raan_deg": 155.8406,
      "arg_perigee_deg": 145.4948,
      "mean_anomaly_deg": 214.6902,
      "mean_motion_rev_day": 13.86525627
    },
    {
      "epoch": "2026-03-30T19:38:23.081280Z",
      "apogee_km": 948.4188410440183,
      "perigee_km": 932.3305567763045,
      "latitude_deg": 9.267304008991336e-05,
      "longitude_deg": 32.83204247273618,
      "height_km": 949.9028304947652,
      "semi_major_axis_km": 7318.511698910162,
      "eccentricity": 0.00109915,
      "inclination_deg": 81.0034,
      "raan_deg": 155.6328,
      "arg_perigee_deg": 146.132,
      "mean_anomaly_deg": 214.0542,
      "mean_motion_rev_day": 13.86655584
    },
    {
      "epoch": "2026-03-31T16:24:55.991232Z",
      "apogee_km": 946.2496534105576,
      "perigee_km": 930.3802691065875,
      "latitude_deg": 9.015342747506922e-05,
      "longitude_deg": 79.51128631826822,
      "height_km": 947.4575888342804,
      "semi_major_axis_km": 7316.451961258573,
      "eccentricity": 0.0010845,
      "inclination_deg": 81.0024,
      "raan_deg": 154.8024,
      "arg_perigee_deg": 142.4902,
      "mean_anomaly_deg": 217.7015,
      "mean_motion_rev_day": 13.87241185
    },
    {
      "epoch": "2026-04-01T13:10:57.836928Z",
      "apogee_km": 944.18569243812,
      "perigee_km": 928.3514672388856,
      "latitude_deg": 5.132174514338996e-05,
      "longitude_deg": 126.3175131710375,
      "height_km": 945.1950030265816,
      "semi_major_axis_km": 7314.4055798385025,
      "eccentricity": 0.0010824,
      "inclination_deg": 81.0034,
      "raan_deg": 153.9692,
      "arg_perigee_deg": 140.1482,
      "mean_anomaly_deg": 220.0473,
      "mean_motion_rev_day": 13.87823397
    },
    {
      "epoch": "2026-04-01T13:10:57.837792Z",
      "apogee_km": 944.1860581583987,
      "perigee_km": 928.3511015186068,
      "latitude_deg": 4.765517508525848e-05,
      "longitude_deg": 126.31750898370515,
      "height_km": 945.1952838499358,
      "semi_major_axis_km": 7314.4055798385025,
      "eccentricity": 0.00108245,
      "inclination_deg": 81.0034,
      "raan_deg": 153.9692,
      "arg_perigee_deg": 140.1482,
      "mean_anomaly_deg": 220.0473,
      "mean_motion_rev_day": 13.87823397
    },
    {
      "epoch": "2026-04-03T20:31:11.790912Z",
      "apogee_km": 939.3100024061459,
      "perigee_km": 923.2307680401318,
      "latitude_deg": 2.6554159523520617e-05,
      "longitude_deg": 11.761150422266976,
      "height_km": 939.9768199063707,
      "semi_major_axis_km": 7309.407385223139,
      "eccentricity": 0.0010999,
      "inclination_deg": 81.0032,
      "raan_deg": 151.7436,
      "arg_perigee_deg": 136.7686,
      "mean_anomaly_deg": 223.4338,
      "mean_motion_rev_day": 13.89247137
    },
    {
      "epoch": "2026-04-04T20:43:07.875840Z",
      "apogee_km": 939.2669528813467,
      "perigee_km": 923.268128222986,
      "latitude_deg": 3.512969202654399e-05,
      "longitude_deg": 6.810549719910045,
      "height_km": 939.5902407217128,
      "semi_major_axis_km": 7309.4045405521665,
      "eccentricity": 0.0010944,
      "inclination_deg": 81.0027,
      "raan_deg": 150.7705,
      "arg_perigee_deg": 133.1917,
      "mean_anomaly_deg": 227.0158,
      "mean_motion_rev_day": 13.89247948
    },
    {
      "epoch": "2026-04-05T14:00:13.597344Z",
      "apogee_km": 939.2697444139176,
      "perigee_km": 923.263758267306,
      "latitude_deg": -1.1615692771738067e-05,
      "longitude_deg": 106.13123503320467,
      "height_km": 939.4082700506979,
      "semi_major_axis_km": 7309.403751340611,
      "eccentricity": 0.00109489,
      "inclination_deg": 81.0026,
      "raan_deg": 150.0749,
      "arg_perigee_deg": 131.4202,
      "mean_anomaly_deg": 228.7899,
      "mean_motion_rev_day": 13.89248173
    },
    {
      "epoch": "2026-04-05T19:11:21.305760Z",
      "apogee_km": 939.274421419017,
      "perigee_km": 923.2580570412156,
      "latitude_deg": 3.077945827850915e-05,
      "longitude_deg": 27.927463050958885,
      "height_km": 939.3527322575745,
      "semi_major_axis_km": 7309.403239230116,
      "eccentricity": 0.0010956,
      "inclination_deg": 81.0026,
      "raan_deg": 149.8662,
      "arg_perigee_deg": 130.8669,
      "mean_anomaly_deg": 229.3441,
      "mean_motion_rev_day": 13.89248319
    },
    {
      "epoch": "2026-04-06T05:33:36.723456Z",
      "apogee_km": 939.2772640499006,
      "perigee_km": 923.2541761591046,
      "latitude_deg": -1.5517156067462246e-06,
      "longitude_deg": -128.48000313126235,
      "height_km": 939.2416911559666,
      "semi_major_axis_km": 7309.402720104502,
      "eccentricity": 0.00109606,
      "inclination_deg": 81.0025,
      "raan_deg": 149.4489,
      "arg_perigee_deg": 129.8128,
      "mean_anomaly_deg": 230.3997,
      "mean_motion_rev_day": 13.89248467
    },
    {
      "epoch": "2026-04-07T05:45:21.651552Z",
      "apogee_km": 937.828443076849,
      "perigee_km": 921.6597561439603,
      "latitude_deg": 4.638040062103658e-05,
      "longitude_deg": -133.38438533673795,
      "height_km": 937.516493254325,
      "semi_major_axis_km": 7307.881099610404,
      "eccentricity": 0.00110625,
      "inclination_deg": 81.0027,
      "raan_deg": 148.4754,
      "arg_perigee_deg": 127.545,
      "mean_anomaly_deg": 232.6716,
      "mean_motion_rev_day": 13.89682386
    },
    {
      "epoch": "2026-04-08T05:56:35.879136Z",
      "apogee_km": 936.6614041651019,
      "perigee_km": 920.2811574568486,
      "latitude_deg": -1.7687842370550787e-06,
      "longitude_deg": -138.16471403072933,
      "height_km": 935.851812614781,
      "semi_major_axis_km": 7306.608280810975,
      "eccentricity": 0.00112092,
      "inclination_deg": 80.9993,
      "raan_deg": 147.4977,
      "arg_perigee_deg": 123.6295,
      "mean_anomaly_deg": 236.5935,
      "mean_motion_rev_day": 13.90045528
    },
    {
      "epoch": "2026-04-09T19:55:55.696800Z",
      "apogee_km": 933.326738449493,
      "perigee_km": 917.0768096772017,
      "latitude_deg": 1.7472783981480773e-05,
      "longitude_deg": 8.912864512237677,
      "height_km": 932.2194969063665,
      "semi_major_axis_km": 7303.338774063347,
      "eccentricity": 0.0011125,
      "inclination_deg": 81.0019,
      "raan_deg": 145.968,
      "arg_perigee_deg": 120.8988,
      "mean_anomaly_deg": 239.3267,
      "mean_motion_rev_day": 13.90979061
    },
    {
      "epoch": "2026-04-10T02:50:13.557408Z",
      "apogee_km": 932.6765494186411,
      "perigee_km": 916.7363409171357,
      "latitude_deg": -3.1163887144460005e-05,
      "longitude_deg": -95.22293980738804,
      "height_km": 931.5448805728834,
      "semi_major_axis_km": 7302.843445167889,
      "eccentricity": 0.00109137,
      "inclination_deg": 81.0021,
      "raan_deg": 145.6902,
      "arg_perigee_deg": 120.0627,
      "mean_anomaly_deg": 240.1616,
      "mean_motion_rev_day": 13.91120582
    },
    {
      "epoch": "2026-04-11T20:15:20.176128Z",
      "apogee_km": 931.6996140324936,
      "perigee_km": 915.1644807677503,
      "latitude_deg": -6.039955752419982e-05,
      "longitude_deg": 0.12457660356014241,
      "height_km": 930.0117537239416,
      "semi_major_axis_km": 7301.569047400121,
      "eccentricity": 0.0011323,
      "inclination_deg": 81.0016,
      "raan_deg": 144.0163,
      "arg_perigee_deg": 116.8596,
      "mean_anomaly_deg": 243.3722,
      "mean_motion_rev_day": 13.91484802
    },
    {
      "epoch": "2026-04-13T06:46:11.668800Z",
      "apogee_km": 931.7054306778919,
      "perigee_km": 915.155697636972,
      "latitude_deg": -3.960730298710348e-05,
      "longitude_deg": -160.40162558640208,
      "height_km": 929.5509832142857,
      "semi_major_axis_km": 7301.567564157432,
      "eccentricity": 0.0011333,
      "inclination_deg": 81.0014,
      "raan_deg": 142.6221,
      "arg_perigee_deg": 113.3299,
      "mean_anomaly_deg": 246.9054,
      "mean_motion_rev_day": 13.91485226
    }
  ]
}